STARLINK-1316           
1 45415U 20019BH  26068.54392573 -.00000298  00000+0  20517-5 0  9990
2 45415  53.1611 129.9786 0001315  83.5347 276.5804 15.30197836329975
HAWK-2A                 
1 47505U 21006CW  26068.67946547  .00008113  00000+0  25431-3 0  9990
2 47505  97.2459 115.6184 0006450 187.1463 172.9689 15.33304498284242
